JILIN_L_00002001-01
1 36195U 26819AP  26070.40770833  .00000000  00000+0  00000-0 0  9996
2 36195  45.0000   0.0000 0000000   0.0000   0.0000 15.02237003    19
